[{"OBJECT_NAME":"STARLINK-1493","OBJECT_ID":"2020-038AF","EPOCH":"2026-03-09T23:10:29.667360","MEAN_MOTION":15.5030174,"ECCENTRICITY":0.00018687,"INCLINATION":53.0528,"RA_OF_ASC_NODE":203.177,"ARG_OF_PERICENTER":31.7512,"MEAN_ANOMALY":328.3608,"EPHEMERIS_TYPE":0,"CLASSIFICATION_TYPE":"U","NORAD_CAT_ID":45759,"ELEMENT_SET_NO":999,"REV_AT_EPOCH":31668,"BSTAR":0.0020428656,"MEAN_MOTION_DOT":0.00119034,"MEAN_MOTION_DDOT":0},{"OBJECT_NAME":"OBJECT F","OBJECT_ID":"2023-104F","EPOCH":"2026-03-09T22:45:24.423840","MEAN_MOTION":15.4884614,"ECCENTRICITY":0.00205479,"INCLINATION":97.2662,"RA_OF_ASC_NODE":142.0402,"ARG_OF_PERICENTER":45.1611,"MEAN_ANOMALY":315.1305,"EPHEMERIS_TYPE":0,"CLASSIFICATION_TYPE":"U","NORAD_CAT_ID":57429,"ELEMENT_SET_NO":999,"REV_AT_EPOCH":14709,"BSTAR":0.00056008218,"MEAN_MOTION_DOT":0.00030376,"MEAN_MOTION_DDOT":0}]
